{
  "type": "FeatureCollection",
  "features": [
    {
      "type": "Feature",
      "properties": {
        "norad_id": 43057,
        "name": "GSAT0217 (GALILEO 21)",
        "group": "gnss",
        "lat": -5.321326853144475,
        "lon": -137.2883077553517,
        "alt_km": 23214.873634793912,
        "timestamp": "2025-12-20T14:38:02.213596+00:00",
        "meta_object_name": "GSAT0217 (GALILEO 21)",
        "meta_object_id": "2017-079C",
        "meta_epoch": "2025-12-18T06:34:31.891008",
        "meta_mean_motion": 1.70474093,
        "meta_eccentricity": 0.0002798,
        "meta_inclination": 55.1266,
        "meta_ra_of_asc_node": 226.4833,
        "meta_arg_of_pericenter": 348.1017,
        "meta_mean_anomaly": 11.9971,
        "meta_ephemeris_type": 0,
        "meta_classification_type": "U",
        "meta_norad_cat_id": 43057,
        "meta_element_set_no": 999,
        "meta_rev_at_epoch": 4990,
        "meta_bstar": 0,
        "meta_mean_motion_dot": 6.1e-07,
        "meta_mean_motion_ddot": 0,
        "tle_line1": "1 43057U 17079C   25352.27398022  .00000061  00000+0  00000+0 0  9998",
        "tle_line2": "2 43057  55.1266 226.4833 0002798 348.1017  11.9971  1.70474093 49909"
      },
      "geometry": {
        "type": "Point",
        "coordinates": [
          -137.2883077553517,
          -5.321326853144475
        ]
      }
    },
    {
      "type": "Feature",
      "properties": {
        "norad_id": 43058,
        "name": "GSAT0218 (GALILEO 22)",
        "group": "gnss",
        "lat": -30.67718840228939,
        "lon": 70.85539795078328,
        "alt_km": 23225.549986533693,
        "timestamp": "2025-12-20T14:38:02.213608+00:00",
        "meta_object_name": "GSAT0218 (GALILEO 22)",
        "meta_object_id": "2017-079D",
        "meta_epoch": "2025-12-19T01:56:03.752736",
        "meta_mean_motion": 1.70474173,
        "meta_eccentricity": 0.0002958,
        "meta_inclination": 55.1266,
        "meta_ra_of_asc_node": 226.4587,
        "meta_arg_of_pericenter": 305.073,
        "meta_mean_anomaly": 55.0073,
        "meta_ephemeris_type": 0,
        "meta_classification_type": "U",
        "meta_norad_cat_id": 43058,
        "meta_element_set_no": 999,
        "meta_rev_at_epoch": 4994,
        "meta_bstar": 0,
        "meta_mean_motion_dot": 6.6e-07,
        "meta_mean_motion_ddot": 0,
        "tle_line1": "1 43058U 17079D   25353.08059899  .00000066  00000+0  00000+0 0  9990",
        "tle_line2": "2 43058  55.1266 226.4587 0002958 305.0730  55.0073  1.70474173 49943"
      },
      "geometry": {
        "type": "Point",
        "coordinates": [
          70.85539795078328,
          -30.67718840228939
        ]
      }
    },
    {
      "type": "Feature",
      "properties": {
        "norad_id": 43107,
        "name": "BEIDOU-3 M7 (C27)",
        "group": "gnss",
        "lat": 33.93705952507994,
        "lon": -22.79690319732596,
        "alt_km": 21516.416376508205,
        "timestamp": "2025-12-20T14:38:02.213619+00:00",
        "meta_object_name": "BEIDOU-3 M7 (C27)",
        "meta_object_id": "2018-003A",
        "meta_epoch": "2025-12-20T00:11:53.291616",
        "meta_mean_motion": 1.86232576,
        "meta_eccentricity": 0.00029046,
        "meta_inclination": 54.4901,
        "meta_ra_of_asc_node": 308.5614,
        "meta_arg_of_pericenter": 68.4199,
        "meta_mean_anomaly": 291.6021,
        "meta_ephemeris_type": 0,
        "meta_classification_type": "U",
        "meta_norad_cat_id": 43107,
        "meta_element_set_no": 999,
        "meta_rev_at_epoch": 5401,
        "meta_bstar": 0,
        "meta_mean_motion_dot": -7.3e-07,
        "meta_mean_motion_ddot": 0,
        "tle_line1": "1 43107U 18003A   25354.00825569 -.00000073  00000+0  00000+0 0  9990",
        "tle_line2": "2 43107  54.4901 308.5614 0002904  68.4199 291.6021  1.86232576 54010"
      },
      "geometry": {
        "type": "Point",
        "coordinates": [
          -22.79690319732596,
          33.93705952507994
        ]
      }
    },
    {
      "type": "Feature",
      "properties": {
        "norad_id": 43108,
        "name": "BEIDOU-3 M8 (C28)",
        "group": "gnss",
        "lat": 53.325312949664536,
        "lon": 21.864913813333704,
        "alt_km": 21533.98792166958,
        "timestamp": "2025-12-20T14:38:02.213630+00:00",
        "meta_object_name": "BEIDOU-3 M8 (C28)",
        "meta_object_id": "2018-003B",
        "meta_epoch": "2025-12-19T22:52:37.824384",
        "meta_mean_motion": 1.86231114,
        "meta_eccentricity": 0.00045761,
        "meta_inclination": 54.4832,
        "meta_ra_of_asc_node": 308.5462,
        "meta_arg_of_pericenter": 277.5599,
        "meta_mean_anomaly": 82.379,
        "meta_ephemeris_type": 0,
        "meta_classification_type": "U",
        "meta_norad_cat_id": 43108,
        "meta_element_set_no": 999,
        "meta_rev_at_epoch": 5402,
        "meta_bstar": 0,
        "meta_mean_motion_dot": -7.3e-07,
        "meta_mean_motion_ddot": 0,
        "tle_line1": "1 43108U 18003B   25353.95321556 -.00000073  00000+0  00000+0 0  9991",
        "tle_line2": "2 43108  54.4832 308.5462 0004576 277.5599  82.3790  1.86231114 54025"
      },
      "geometry": {
        "type": "Point",
        "coordinates": [
          21.864913813333704,
          53.325312949664536
        ]
      }
    },
    {
      "type": "Feature",
      "properties": {
        "norad_id": 43207,
        "name": "BEIDOU-3 M4 (C22)",
        "group": "gnss",
        "lat": 29.424483073631464,
        "lon": -132.8454693514516,
        "alt_km": 21533.072249200704,
        "timestamp": "2025-12-20T14:38:02.213641+00:00",
        "meta_object_name": "BEIDOU-3 M4 (C22)",
        "meta_object_id": "2018-018A",
        "meta_epoch": "2025-12-18T05:56:14.155584",
        "meta_mean_motion": 1.86231297,
        "meta_eccentricity": 0.0004163,
        "meta_inclination": 56.4903,
        "meta_ra_of_asc_node": 69.1221,
        "meta_arg_of_pericenter": 6.0826,
        "meta_mean_anomaly": 353.9513,
        "meta_ephemeris_type": 0,
        "meta_classification_type": "U",
        "meta_norad_cat_id": 43207,
        "meta_element_set_no": 999,
        "meta_rev_at_epoch": 5337,
        "meta_bstar": 0,
        "meta_mean_motion_dot": -6.5e-07,
        "meta_mean_motion_ddot": 0,
        "tle_line1": "1 43207U 18018A   25352.24738606 -.00000065  00000+0  00000+0 0  9997",
        "tle_line2": "2 43207  56.4903  69.1221 0004163   6.0826 353.9513  1.86231297 53378"
      },
      "geometry": {
        "type": "Point",
        "coordinates": [
          -132.8454693514516,
          29.424483073631464
        ]
      }
    },
    {
      "type": "Feature",
      "properties": {
        "norad_id": 43208,
        "name": "BEIDOU-3 M3 (C21)",
        "group": "gnss",
        "lat": 55.40348766793628,
        "lon": 175.52139539523841,
        "alt_km": 21537.729026610807,
        "timestamp": "2025-12-20T14:38:02.213652+00:00",
        "meta_object_name": "BEIDOU-3 M3 (C21)",
        "meta_object_id": "2018-018B",
        "meta_epoch": "2025-12-19T09:18:26.987040",
        "meta_mean_motion": 1.8623146,
        "meta_eccentricity": 0.0007021,
        "meta_inclination": 56.4904,
        "meta_ra_of_asc_node": 69.0885,
        "meta_arg_of_pericenter": 313.7803,
        "meta_mean_anomaly": 46.1968,
        "meta_ephemeris_type": 0,
        "meta_classification_type": "U",
        "meta_norad_cat_id": 43208,
        "meta_element_set_no": 999,
        "meta_rev_at_epoch": 5339,
        "meta_bstar": 0,
        "meta_mean_motion_dot": -5.3e-07,
        "meta_mean_motion_ddot": 0,
        "tle_line1": "1 43208U 18018B   25353.38781235 -.00000053  00000+0  00000+0 0  9997",
        "tle_line2": "2 43208  56.4904  69.0885 0007021 313.7803  46.1968  1.86231460 53393"
      },
      "geometry": {
        "type": "Point",
        "coordinates": [
          175.52139539523841,
          55.40348766793628
        ]
      }
    },
    {
      "type": "Feature",
      "properties": {
        "norad_id": 43245,
        "name": "BEIDOU-3 M9 (C29)",
        "group": "gnss",
        "lat": -35.602353014397835,
        "lon": -84.7061360937482,
        "alt_km": 21528.744493462695,
        "timestamp": "2025-12-20T14:38:02.213663+00:00",
        "meta_object_name": "BEIDOU-3 M9 (C29)",
        "meta_object_id": "2018-029A",
        "meta_epoch": "2025-12-19T14:29:50.131680",
        "meta_mean_motion": 1.86228397,
        "meta_eccentricity": 0.00015252,
        "meta_inclination": 54.3596,
        "meta_ra_of_asc_node": 306.2287,
        "meta_arg_of_pericenter": 290.8433,
        "meta_mean_anomaly": 69.1316,
        "meta_ephemeris_type": 0,
        "meta_classification_type": "U",
        "meta_norad_cat_id": 43245,
        "meta_element_set_no": 999,
        "meta_rev_at_epoch": 5255,
        "meta_bstar": 0,
        "meta_mean_motion_dot": -7.4e-07,
        "meta_mean_motion_ddot": 0,
        "tle_line1": "1 43245U 18029A   25353.60405245 -.00000074  00000+0  00000+0 0  9992",
        "tle_line2": "2 43245  54.3596 306.2287 0001525 290.8433  69.1316  1.86228397 52551"
      },
      "geometry": {
        "type": "Point",
        "coordinates": [
          -84.7061360937482,
          -35.602353014397835
        ]
      }
    }
  ]
}